NORAD_CAT_ID,OBJECT_NAME,OBJECT_TYPE,EPOCH,MEAN_MOTION,ECCENTRICITY,INCLINATION,RA_OF_ASC_NODE,ARG_OF_PERICENTER,MEAN_ANOMALY,BSTAR,MEAN_MOTION_DOT,MEAN_MOTION_DDOT,TLE_LINE0,TLE_LINE1,TLE_LINE2,SEMIMAJOR_AXIS,PERIOD,APOGEE,PERIGEE,DECAYED
50178.0,STARLINK-3284,PAYLOAD,2023-12-11 06:07:21,15.08841729,0.0001959,53.2188,327.5604,110.39,249.7303,-2.8273e-05,-7.38e-06,0.0,0 STARLINK-3284,1 50178U 21125Y   23345.25510458 -.00000738  00000-0 -28273-4 0  9995,2 50178  53.2188 327.5604 0001959 110.3900 249.7303 15.08841729112934,6917.875,95.437,541.095,538.385,0.0
50178.0,STARLINK-3284,PAYLOAD,2023-12-12 05:58:07,15.08843951,0.0001597,53.2188,323.101,97.8965,262.2208,0.00017397,2.482e-05,0.0,0 STARLINK-3284,1 50178U 21125Y   23346.24870152  .00002482  00000-0  17397-3 0  9995,2 50178  53.2188 323.1010 0001597  97.8965 262.2208 15.08843951112556,6917.868,95.437,540.838,538.629,0.0
50178.0,STARLINK-3284,PAYLOAD,2023-12-13 04:13:32,15.08839437,0.0001671,53.219,318.94,105.0937,255.024,9.2183e-05,1.179e-05,0.0,0 STARLINK-3284,1 50178U 21125Y   23347.17606747  .00001179  00000-0  92183-4 0  9994,2 50178  53.2190 318.9400 0001671 105.0937 255.0240 15.08839437112693,6917.882,95.438,540.903,538.591,0.0
50178.0,STARLINK-3284,PAYLOAD,2023-12-13 05:48:55,15.08837907,0.0001685,53.2192,318.6392,84.1841,275.9344,6.9228e-05,8.14e-06,0.0,0 STARLINK-3284,1 50178U 21125Y   23347.24230946  .00000814  00000-0  69228-4 0  9995,2 50178  53.2192 318.6392 0001685  84.1841 275.9344 15.08837907113235,6917.887,95.438,540.917,538.586,0.0
50178.0,STARLINK-3284,PAYLOAD,2023-12-14 05:39:42,15.08847083,0.0001592,53.2186,314.1803,79.4414,280.6758,3.2977e-05,2.37e-06,0.0,0 STARLINK-3284,1 50178U 21125Y   23348.23590515  .00000237  00000-0  32977-4 0  9996,2 50178  53.2186 314.1803 0001592  79.4414 280.6758 15.08847083112851,6917.859,95.437,540.825,538.622,0.0
50178.0,STARLINK-3284,PAYLOAD,2023-12-15 03:55:05,15.08847273,0.0001762,53.2189,310.0157,71.5814,288.537,0.00014425,2.009e-05,0.0,0 STARLINK-3284,1 50178U 21125Y   23349.16326144  .00002009  00000-0  14425-3 0  9990,2 50178  53.2189 310.0157 0001762  71.5814 288.5370 15.08847273113520,6917.858,95.437,540.942,538.504,0.0
50178.0,STARLINK-3284,PAYLOAD,2023-12-16 02:10:30,15.08838376,0.0001439,53.2189,305.8536,102.3902,257.7251,4.5271e-06,-2.16e-06,0.0,0 STARLINK-3284,1 50178U 21125Y   23350.09062772 -.00000216  00000-0  45271-5 0  9992,2 50178  53.2189 305.8536 0001439 102.3902 257.7251 15.08838376113132,6917.885,95.438,540.746,538.755,0.0
50178.0,STARLINK-3284,PAYLOAD,2023-12-17 02:01:17,15.08845143,0.0001604,53.2176,301.3948,115.375,244.7408,1.5907e-05,-3.5e-07,0.0,0 STARLINK-3284,1 50178U 21125Y   23351.08422508 -.00000035  00000-0  15907-4 0  9990,2 50178  53.2176 301.3948 0001604 115.3750 244.7408 15.08845143113810,6917.865,95.437,540.839,538.62,0.0
50178.0,STARLINK-3284,PAYLOAD,2023-12-18 03:27:26,15.0885738,0.0001738,53.2176,296.6353,117.7949,242.322,0.00037409,5.673e-05,0.0,0 STARLINK-3284,1 50178U 21125Y   23352.14405785  .00005673  00000-0  37409-3 0  9998,2 50178  53.2176 296.6353 0001738 117.7949 242.3220 15.08857380113441,6917.827,95.436,540.895,538.49,0.0
50178.0,STARLINK-3284,PAYLOAD,2023-12-19 03:18:15,15.0882541,0.0001486,53.2175,292.1728,93.3547,266.7615,-0.00021333,-3.68e-05,0.0,0 STARLINK-3284,1 50178U 21125Y   23353.13767492 -.00003680  00000-0 -21333-3 0  9991,2 50178  53.2175 292.1728 0001486  93.3547 266.7615 15.08825410113593,6917.925,95.438,540.818,538.762,0.0
50178.0,STARLINK-3284,PAYLOAD,2023-12-20 03:09:01,15.08852024,0.0001472,53.2171,287.7143,81.7675,278.3484,0.00038837,5.9e-05,0.0,0 STARLINK-3284,1 50178U 21125Y   23354.13127031  .00005900  00000-0  38837-3 0  9993,2 50178  53.2171 287.7143 0001472  81.7675 278.3484 15.08852024113749,6917.844,95.437,540.727,538.69,0.0
50178.0,STARLINK-3284,PAYLOAD,2023-12-21 02:59:48,15.08857268,0.0001705,53.2172,283.255,73.9312,286.1868,0.0005021,7.716e-05,0.0,0 STARLINK-3284,1 50178U 21125Y   23355.12486652  .00007716  00000-0  50210-3 0  9996,2 50178  53.2172 283.2550 0001705  73.9312 286.1868 15.08857268113897,6917.828,95.436,540.872,538.513,0.0
50178.0,STARLINK-3284,PAYLOAD,2023-12-22 02:50:36,15.08837071,0.0001632,53.2165,278.7965,85.2536,274.8642,-0.00010609,-1.976e-05,0.0,0 STARLINK-3284,1 50178U 21125Y   23356.11847426 -.00001976  00000-0 -10609-3 0  9998,2 50178  53.2165 278.7965 0001632  85.2536 274.8642 15.08837071114043,6917.889,95.438,540.883,538.625,0.0
50178.0,STARLINK-3284,PAYLOAD,2023-12-22 18:44:27,15.08840635,0.0001553,53.2164,275.8225,84.1009,276.016,6.005e-05,6.68e-06,0.0,0 STARLINK-3284,1 50178U 21125Y   23356.78087698  .00000668  00000-0  60050-4 0  9999,2 50178  53.2164 275.8225 0001553  84.1009 276.0160 15.08840635114672,6917.878,95.438,540.818,538.669,0.0
50178.0,STARLINK-3284,PAYLOAD,2023-12-23 04:16:46,15.08854401,0.0001543,53.2156,274.0335,110.9454,249.1704,0.00045015,6.886e-05,0.0,0 STARLINK-3284,1 50178U 21125Y   23357.17831068  .00006886  00000-0  45015-3 0  9992,2 50178  53.2156 274.0335 0001543 110.9454 249.1704 15.08854401114207,6917.836,95.437,540.769,538.634,0.0
50178.0,STARLINK-3284,PAYLOAD,2023-12-23 21:46:00,15.08843886,0.0002179,53.2183,270.7538,122.8608,237.2594,0.00021762,3.177e-05,0.0,0 STARLINK-3284,1 50178U 21125Y   23357.90695557  .00003177  00000-0  21762-3 0  9997,2 50178  53.2183 270.7538 0002179 122.8608 237.2594 15.08843886114844,6917.869,95.437,541.241,538.226,0.0
50178.0,STARLINK-3284,PAYLOAD,2023-12-24 04:07:33,15.08846667,0.0001519,53.2169,269.572,96.0448,264.0717,0.00035083,5.301e-05,0.0,0 STARLINK-3284,1 50178U 21125Y   23358.17191784  .00005301  00000-0  35083-3 0  9992,2 50178  53.2169 269.5720 0001519  96.0448 264.0717 15.08846667114359,6917.86,95.437,540.776,538.674,0.0
50178.0,STARLINK-3284,PAYLOAD,2023-12-24 21:36:48,15.08844662,0.0001688,53.2177,266.2981,109.0864,251.0311,0.0002552,3.776e-05,0.0,0 STARLINK-3284,1 50178U 21125Y   23358.90055805  .00003776  00000-0  25520-3 0  9995,2 50178  53.2177 266.2981 0001688 109.0864 251.0311 15.08844662114994,6917.866,95.437,540.899,538.563,0.0
50178.0,STARLINK-3284,PAYLOAD,2023-12-24 23:12:11,15.08845758,0.0001656,53.2174,266.001,103.5456,256.5721,0.00028114,4.19e-05,0.0,0 STARLINK-3284,1 50178U 21125Y   23358.96679793  .00004190  00000-0  28114-3 0  9992,2 50178  53.2174 266.0010 0001656 103.5456 256.5721 15.08845758114478,6917.863,95.437,540.873,538.582,0.0
50178.0,STARLINK-3284,PAYLOAD,2023-12-25 21:27:35,15.08841387,0.0001589,53.2171,261.8384,109.0004,251.116,0.0001168,1.571e-05,0.0,0 STARLINK-3284,1 50178U 21125Y   23359.89415934  .00001571  00000-0  11680-3 0  9990,2 50178  53.2171 261.8384 0001589 109.0004 251.1160 15.08841387115144,6917.876,95.437,540.84,538.642,0.0
50178.0,STARLINK-3284,PAYLOAD,2023-12-25 23:02:58,15.08842444,0.0001569,53.2167,261.5416,103.3677,256.749,0.00012781,1.747e-05,0.0,0 STARLINK-3284,1 50178U 21125Y   23359.96039929  .00001747  00000-0  12781-3 0  9992,2 50178  53.2167 261.5416 0001569 103.3677 256.7490 15.08842444114627,6917.873,95.437,540.823,538.653,0.0
50178.0,STARLINK-3284,PAYLOAD,2023-12-26 16:32:13,15.08839394,0.0001395,53.2159,258.2781,90.9441,269.1711,9.6497e-05,1.248e-05,0.0,0 STARLINK-3284,1 50178U 21125Y   23360.68904225  .00001248  00000-0  96497-4 0  9996,2 50178  53.2159 258.2781 0001395  90.9441 269.1711 15.08839394114739,6917.882,95.438,540.712,538.782,0.0
50178.0,STARLINK-3284,PAYLOAD,2023-12-26 22:53:45,15.08842177,0.0001399,53.2162,257.089,96.6761,263.439,5.3253e-05,5.6e-06,0.0,0 STARLINK-3284,1 50178U 21125Y   23360.95400097  .00000560  00000-0  53253-4 0  9993,2 50178  53.2162 257.0890 0001399  96.6761 263.4390 15.08842177115300,6917.874,95.437,540.707,538.771,0.0
50178.0,STARLINK-3284,PAYLOAD,2023-12-27 03:39:54,15.08849456,0.0001523,53.2162,256.1942,107.2696,252.8463,0.0002185,3.192e-05,0.0,0 STARLINK-3284,1 50178U 21125Y   23361.15271737  .00003192  00000-0  21850-3 0  9994,2 50178  53.2162 256.1942 0001523 107.2696 252.8463 15.08849456114807,6917.851,95.437,540.77,538.663,0.0
50178.0,STARLINK-3284,PAYLOAD,2023-12-27 21:09:09,15.08840057,0.0001481,53.2154,252.9181,116.1199,243.9946,4.0918e-05,3.63e-06,0.0,0 STARLINK-3284,1 50178U 21125Y   23361.88136007  .00000363  00000-0  40918-4 0  9998,2 50178  53.2154 252.9181 0001481 116.1199 243.9946 15.08840057115443,6917.88,95.438,540.77,538.721,0.0
50178.0,STARLINK-3284,PAYLOAD,2023-12-28 00:19:56,15.08839978,0.0001515,53.2166,252.3317,82.5298,277.5867,5.5632e-05,5.98e-06,0.0,0 STARLINK-3284,1 50178U 21125Y   23362.01384369  .00000598  00000-0  55632-4 0  9999,2 50178  53.2166 252.3317 0001515  82.5298 277.5867 15.08839978114933,6917.88,95.438,540.794,538.697,0.0
50178.0,STARLINK-3284,PAYLOAD,2023-12-28 22:35:19,15.08843824,0.000161,53.2165,248.1647,74.5013,285.6157,6.5998e-05,7.63e-06,0.0,0 STARLINK-3284,1 50178U 21125Y   23362.94120246  .00000763  00000-0  65998-4 0  9993,2 50178  53.2165 248.1647 0001610  74.5013 285.6157 15.08843824115605,6917.869,95.437,540.847,538.62,0.0
50178.0,STARLINK-3284,PAYLOAD,2023-12-29 01:46:05,15.08848301,0.0001569,53.2166,247.5698,84.1588,275.9583,0.00012877,1.762e-05,0.0,0 STARLINK-3284,1 50178U 21125Y   23363.07367953  .00001762  00000-0  12877-3 0  9993,2 50178  53.2166 247.5698 0001569  84.1588 275.9583 15.08848301115095,6917.855,95.437,540.805,538.635,0.0
50178.0,STARLINK-3284,PAYLOAD,2023-12-29 22:26:06,15.08843711,0.0001432,53.2156,243.7019,114.2944,245.8198,0.00010345,1.359e-05,0.0,0 STARLINK-3284,1 50178U 21125Y   23363.93480166  .00001359  00000-0  10345-3 0  9990,2 50178  53.2156 243.7019 0001432 114.2944 245.8198 15.08843711115750,6917.869,95.437,540.725,538.743,0.0
50178.0,STARLINK-3284,PAYLOAD,2023-12-30 22:16:53,15.08848431,0.0001446,53.2147,239.2438,109.3044,250.8104,0.00011124,1.483e-05,0.0,0 STARLINK-3284,1 50178U 21125Y   23364.92840065  .00001483  00000-0  11124-3 0  9992,2 50178  53.2147 239.2438 0001446 109.3044 250.8104 15.08848431115900,6917.855,95.437,540.72,538.719,0.0
